{
  "type": "FeatureCollection",
  "features": [
    {
      "type": "Feature",
      "properties": {
        "norad_id": 37565,
        "name": "IRIDIUM 33 DEB",
        "group": "iridium-33-debris",
        "lat": 61.09202091919229,
        "lon": 10.500896819957566,
        "alt_km": 704.6506796331187,
        "timestamp": "2025-12-25T20:42:39.073745+00:00",
        "meta_object_name": "IRIDIUM 33 DEB",
        "meta_object_id": "1997-051YA",
        "meta_epoch": "2025-12-22T08:03:11.421504",
        "meta_mean_motion": 14.51554431,
        "meta_eccentricity": 0.00147764,
        "meta_inclination": 86.3487,
        "meta_ra_of_asc_node": 5.397,
        "meta_arg_of_pericenter": 56.1153,
        "meta_mean_anomaly": 304.1456,
        "meta_ephemeris_type": 0,
        "meta_classification_type": "U",
        "meta_norad_cat_id": 37565,
        "meta_element_set_no": 999,
        "meta_rev_at_epoch": 65976,
        "meta_bstar": 0.00051713633,
        "meta_mean_motion_dot": 2.092e-05,
        "meta_mean_motion_ddot": 0,
        "tle_line1": "1 37565U 97051YA  25356.33554886  .00002092  00000+0  51714-3 0  9994",
        "tle_line2": "2 37565  86.3487   5.3970 0014776  56.1153 304.1456 14.51554431659763"
      },
      "geometry": {
        "type": "Point",
        "coordinates": [
          10.500896819957566,
          61.09202091919229
        ]
      }
    },
    {
      "type": "Feature",
      "properties": {
        "norad_id": 38017,
        "name": "IRIDIUM 33 DEB",
        "group": "iridium-33-debris",
        "lat": 39.62631184087753,
        "lon": 163.55930321877833,
        "alt_km": 663.1973454878898,
        "timestamp": "2025-12-25T20:42:39.073755+00:00",
        "meta_object_name": "IRIDIUM 33 DEB",
        "meta_object_id": "1997-051YD",
        "meta_epoch": "2025-12-24T09:44:09.506112",
        "meta_mean_motion": 14.49387584,
        "meta_eccentricity": 0.00913995,
        "meta_inclination": 86.342,
        "meta_ra_of_asc_node": 161.1566,
        "meta_arg_of_pericenter": 64.0527,
        "meta_mean_anomaly": 297.0059,
        "meta_ephemeris_type": 0,
        "meta_classification_type": "U",
        "meta_norad_cat_id": 38017,
        "meta_element_set_no": 999,
        "meta_rev_at_epoch": 61571,
        "meta_bstar": 0.0046903358,
        "meta_mean_motion_dot": 0.00018964,
        "meta_mean_motion_ddot": 0,
        "tle_line1": "1 38017U 97051YD  25358.40566558  .00018964  00000+0  46903-2 0  9994",
        "tle_line2": "2 38017  86.3420 161.1566 0091399  64.0527 297.0059 14.49387584615710"
      },
      "geometry": {
        "type": "Point",
        "coordinates": [
          163.55930321877833,
          39.62631184087753
        ]
      }
    },
    {
      "type": "Feature",
      "properties": {
        "norad_id": 38022,
        "name": "IRIDIUM 33 DEB",
        "group": "iridium-33-debris",
        "lat": 11.887925490721909,
        "lon": -170.09153839152125,
        "alt_km": 785.8964752020356,
        "timestamp": "2025-12-25T20:42:39.073766+00:00",
        "meta_object_name": "IRIDIUM 33 DEB",
        "meta_object_id": "1997-051YJ",
        "meta_epoch": "2025-12-23T07:57:08.773056",
        "meta_mean_motion": 14.41313849,
        "meta_eccentricity": 0.00453843,
        "meta_inclination": 86.2683,
        "meta_ra_of_asc_node": 11.8042,
        "meta_arg_of_pericenter": 16.2864,
        "meta_mean_anomaly": 343.9781,
        "meta_ephemeris_type": 0,
        "meta_classification_type": "U",
        "meta_norad_cat_id": 38022,
        "meta_element_set_no": 999,
        "meta_rev_at_epoch": 69346,
        "meta_bstar": 0.0010847612,
        "meta_mean_motion_dot": 3.57e-05,
        "meta_mean_motion_ddot": 0,
        "tle_line1": "1 38022U 97051YJ  25357.33135154  .00003570  00000+0  10848-2 0  9991",
        "tle_line2": "2 38022  86.2683  11.8042 0045384  16.2864 343.9781 14.41313849693468"
      },
      "geometry": {
        "type": "Point",
        "coordinates": [
          -170.09153839152125,
          11.887925490721909
        ]
      }
    },
    {
      "type": "Feature",
      "properties": {
        "norad_id": 38028,
        "name": "IRIDIUM 33 DEB",
        "group": "iridium-33-debris",
        "lat": -2.884082752707546,
        "lon": 174.75030986790037,
        "alt_km": 746.7451697515471,
        "timestamp": "2025-12-25T20:42:39.073781+00:00",
        "meta_object_name": "IRIDIUM 33 DEB",
        "meta_object_id": "1997-051YQ",
        "meta_epoch": "2025-12-19T17:44:22.316352",
        "meta_mean_motion": 14.46188799,
        "meta_eccentricity": 0.0030512,
        "meta_inclination": 86.3252,
        "meta_ra_of_asc_node": 357.2262,
        "meta_arg_of_pericenter": 99.065,
        "meta_mean_anomaly": 261.4007,
        "meta_ephemeris_type": 0,
        "meta_classification_type": "U",
        "meta_norad_cat_id": 38028,
        "meta_element_set_no": 999,
        "meta_rev_at_epoch": 65596,
        "meta_bstar": 0.00016660929,
        "meta_mean_motion_dot": 6.2e-06,
        "meta_mean_motion_ddot": 0,
        "tle_line1": "1 38028U 97051YQ  25353.73914718  .00000620  00000+0  16661-3 0  9991",
        "tle_line2": "2 38028  86.3252 357.2262 0030512  99.0650 261.4007 14.46188799655964"
      },
      "geometry": {
        "type": "Point",
        "coordinates": [
          174.75030986790037,
          -2.884082752707546
        ]
      }
    },
    {
      "type": "Feature",
      "properties": {
        "norad_id": 38228,
        "name": "IRIDIUM 33 DEB",
        "group": "iridium-33-debris",
        "lat": -55.264163523384234,
        "lon": 37.525607845459966,
        "alt_km": 851.131367313058,
        "timestamp": "2025-12-25T20:42:39.073791+00:00",
        "meta_object_name": "IRIDIUM 33 DEB",
        "meta_object_id": "1997-051ZC",
        "meta_epoch": "2025-12-20T22:20:09.818016",
        "meta_mean_motion": 14.2727844,
        "meta_eccentricity": 0.0065198,
        "meta_inclination": 86.2935,
        "meta_ra_of_asc_node": 44.9869,
        "meta_arg_of_pericenter": 163.0896,
        "meta_mean_anomaly": 14.0405,
        "meta_ephemeris_type": 0,
        "meta_classification_type": "U",
        "meta_norad_cat_id": 38228,
        "meta_element_set_no": 999,
        "meta_rev_at_epoch": 84898,
        "meta_bstar": 0.00020665,
        "meta_mean_motion_dot": 5.36e-06,
        "meta_mean_motion_ddot": 0,
        "tle_line1": "1 38228U 97051ZC  25354.93066919  .00000536  00000+0  20665-3 0  9992",
        "tle_line2": "2 38228  86.2935  44.9869 0065198 163.0896  14.0405 14.27278440848980"
      },
      "geometry": {
        "type": "Point",
        "coordinates": [
          37.525607845459966,
          -55.264163523384234
        ]
      }
    },
    {
      "type": "Feature",
      "properties": {
        "norad_id": 38241,
        "name": "IRIDIUM 33 DEB",
        "group": "iridium-33-debris",
        "lat": 86.2767758090969,
        "lon": 65.90767152042534,
        "alt_km": 699.630770403568,
        "timestamp": "2025-12-25T20:42:39.073801+00:00",
        "meta_object_name": "IRIDIUM 33 DEB",
        "meta_object_id": "1997-051ZR",
        "meta_epoch": "2025-12-25T07:05:48.823008",
        "meta_mean_motion": 14.54944281,
        "meta_eccentricity": 0.00049063,
        "meta_inclination": 86.3239,
        "meta_ra_of_asc_node": 345.0585,
        "meta_arg_of_pericenter": 45.5545,
        "meta_mean_anomaly": 314.6063,
        "meta_ephemeris_type": 0,
        "meta_classification_type": "U",
        "meta_norad_cat_id": 38241,
        "meta_element_set_no": 999,
        "meta_rev_at_epoch": 60383,
        "meta_bstar": 0.00082967513,
        "meta_mean_motion_dot": 3.588e-05,
        "meta_mean_motion_ddot": 0,
        "tle_line1": "1 38241U 97051ZR  25359.29570397  .00003588  00000+0  82968-3 0  9995",
        "tle_line2": "2 38241  86.3239 345.0585 0004906  45.5545 314.6063 14.54944281603833"
      },
      "geometry": {
        "type": "Point",
        "coordinates": [
          65.90767152042534,
          86.2767758090969
        ]
      }
    },
    {
      "type": "Feature",
      "properties": {
        "norad_id": 38474,
        "name": "IRIDIUM 33 DEB",
        "group": "iridium-33-debris",
        "lat": 24.489032224588705,
        "lon": 6.014679453070807,
        "alt_km": 704.4049513725313,
        "timestamp": "2025-12-25T20:42:39.073811+00:00",
        "meta_object_name": "IRIDIUM 33 DEB",
        "meta_object_id": "1997-051AAB",
        "meta_epoch": "2025-12-21T07:20:31.212384",
        "meta_mean_motion": 14.50718538,
        "meta_eccentricity": 0.00276153,
        "meta_inclination": 86.3426,
        "meta_ra_of_asc_node": 6.3307,
        "meta_arg_of_pericenter": 61.1056,
        "meta_mean_anomaly": 299.2914,
        "meta_ephemeris_type": 0,
        "meta_classification_type": "U",
        "meta_norad_cat_id": 38474,
        "meta_element_set_no": 999,
        "meta_rev_at_epoch": 65442,
        "meta_bstar": 0.00039085525,
        "meta_mean_motion_dot": 1.564e-05,
        "meta_mean_motion_ddot": 0,
        "tle_line1": "1 38474U 97051AAB 25355.30591681  .00001564  00000+0  39086-3 0  9995",
        "tle_line2": "2 38474  86.3426   6.3307 0027615  61.1056 299.2914 14.50718538654425"
      },
      "geometry": {
        "type": "Point",
        "coordinates": [
          6.014679453070807,
          24.489032224588705
        ]
      }
    }
  ]
}